      2.10          N: GNSS NAV DATA                        RINEX VERSION / TYPE
fic2rin                                 09/07/2018 00:18:24 PGM / RUN BY / DATE
                                                            END OF HEADER
15 18  9  6 12  0  0.0-3.466256894171e-04 1.023181539495e-12 0.000000000000e+00
    6.700000000000e+01 3.628125000000e+01 5.563803183307e-09 1.410426720677e+00
    1.965090632439e-06 1.059341314249e-02 6.806105375290e-06 5.153805145264e+03
    3.888000000000e+05-1.471489667892e-07-2.500836031436e+00 1.154839992523e-07
    9.283007031990e-01 2.346250000000e+02 7.038480803377e-01-8.686790411117e-09
    2.917978688382e-10 1.000000000000e+00 2.017000000000e+03 0.000000000000e+00
    2.400000000000e+00 0.000000000000e+00-1.071020960808e-08 6.700000000000e+01
    3.816060000000e+05 4.000000000000e+00
19 18  9  6 12  0  0.0-4.051760770380e-04 3.410605131648e-12 0.000000000000e+00
    5.400000000000e+01 5.331250000000e+01 4.476972198148e-09-1.183454432085e+00
    3.034248948097e-06 9.702618466690e-03 2.151355147362e-06 5.153722318649e+03
    3.888000000000e+05-2.980232238770e-08 8.248776454078e-01 2.831220626831e-07
    9.807571068245e-01 3.495625000000e+02 1.274831939444e+00-8.373920235961e-09
    1.767930784271e-10 1.000000000000e+00 2.017000000000e+03 0.000000000000e+00
    2.400000000000e+00 0.000000000000e+00-1.536682248116e-08 5.400000000000e+01
    3.816060000000e+05 4.000000000000e+00
17 18  9  6 12  0  0.0-5.894107744098e-05 4.433786671143e-12 0.000000000000e+00
    4.800000000000e+01 6.075000000000e+01 4.308750905342e-09 2.322991884953e+00
    2.907589077950e-06 1.253714412451e-02 1.879408955574e-06 5.153609411240e+03
    3.888000000000e+05 3.166496753693e-08 7.780968519085e-01-1.471489667892e-07
    9.831869157386e-01 3.513125000000e+02-1.775047636785e+00-8.106409093049e-09
    1.382200431339e-10 1.000000000000e+00 2.017000000000e+03 0.000000000000e+00
    2.400000000000e+00 0.000000000000e+00-1.117587089539e-08 4.800000000000e+01
    3.816060000000e+05 4.000000000000e+00
11 18  9  6 12  0  0.0-7.199244573712e-04 2.728484105319e-12 0.000000000000e+00
    9.900000000000e+01-7.375000000000e+01 6.328477892220e-09-5.035558114179e-01
   -3.729015588760e-06 1.703727198765e-02 1.573935151100e-06 5.153651945114e+03
    3.888000000000e+05-2.086162567139e-07 1.346022235000e+00 1.862645149231e-08
    9.062412722437e-01 3.196875000000e+02 1.809844160028e+00-9.574327380594e-09
   -1.139333172086e-10 1.000000000000e+00 2.017000000000e+03 0.000000000000e+00
    3.400000000000e+00 0.000000000000e+00-1.210719347000e-08 9.900000000000e+01
    3.816060000000e+05 4.000000000000e+00
32 18  9  6 12  0  0.0-4.315334372222e-04 1.068656274583e-11 0.000000000000e+00
    8.200000000000e+01 2.712500000000e+01 4.826272462192e-09 3.059711501928e+00
    1.490116119385e-06 2.306592999958e-03 6.137415766716e-06 5.153692308426e+03
    3.888000000000e+05-1.117587089539e-08-2.422069049081e+00-1.862645149231e-08
    9.570529170727e-01 2.583125000000e+02-2.534797082164e+00-8.165340119191e-09
    3.353711124101e-10 1.000000000000e+00 2.017000000000e+03 0.000000000000e+00
    2.400000000000e+00 0.000000000000e+00 4.656612873077e-10 8.200000000000e+01
    3.816060000000e+05 4.000000000000e+00
31 18  9  6 12  0  0.0 9.547267109156e-05-2.614797267597e-12 0.000000000000e+00
    7.700000000000e+01-8.062500000000e+00 4.607691928864e-09-7.046298140201e-01
   -5.494803190231e-07 8.846966899000e-03 8.156523108482e-06 5.153728744507e+03
    3.888000000000e+05 1.303851604462e-07-1.336878482058e+00-1.378357410431e-07
    9.619257772354e-01 2.174062500000e+02-1.137244412166e-01-8.073907739237e-09
   -4.085884479203e-10 1.000000000000e+00 2.017000000000e+03 0.000000000000e+00
    2.400000000000e+00 0.000000000000e+00-1.350417733192e-08 7.700000000000e+01
    3.816060000000e+05 4.000000000000e+00
18 18  9  6 12  0  0.0 5.417037755251e-05 4.433786671143e-12 0.000000000000e+00
    6.900000000000e+01-1.188750000000e+02 5.011280168505e-09-8.529249668341e-02
   -6.111338734627e-06 1.497492601629e-02 5.356967449188e-06 5.153634233475e+03
    3.888000000000e+05-1.490116119385e-07 1.730512181156e+00 1.396983861923e-07
    9.505797810634e-01 2.698125000000e+02 1.343806796250e+00-8.781794368413e-09
   -3.660866775510e-10 1.000000000000e+00 2.017000000000e+03 0.000000000000e+00
    2.400000000000e+00 0.000000000000e+00-6.519258022308e-09 6.900000000000e+01
    3.816060000000e+05 4.000000000000e+00
12 18  9  6 12  0  0.0 3.088745288551e-04-2.728484105319e-12 0.000000000000e+00
    8.500000000000e+01 9.203125000000e+01 3.834088276595e-09-1.078208238970e+00
    5.045905709267e-06 7.018650649115e-03 1.045502722263e-05 5.153785120010e+03
    3.888000000000e+05 7.823109626770e-08-2.551800263009e-01 1.247972249985e-07
    9.859204030393e-01 1.947187500000e+02 1.025557278943e+00-7.703892326610e-09
    1.000041655749e-10 1.000000000000e+00 2.017000000000e+03 0.000000000000e+00
    2.400000000000e+00 0.000000000000e+00-1.257285475731e-08 8.500000000000e+01
    3.816060000000e+05 4.000000000000e+00
10 18  9  6 12  0  0.0 1.834793947637e-04-2.046363078989e-12 0.000000000000e+00
    7.300000000000e+01-3.437500000000e+01 4.125528987699e-09-1.849672018424e+00
   -1.784414052963e-06 3.742946428247e-03 1.233071088791e-05 5.153668649673e+03
    3.888000000000e+05-1.508742570877e-07 2.819364176120e+00-7.078051567078e-08
    9.619932177589e-01 1.436875000000e+02-2.794949891785e+00-7.662104871709e-09
    3.117987019532e-10 1.000000000000e+00 2.017000000000e+03 0.000000000000e+00
    2.400000000000e+00 0.000000000000e+00 1.862645149231e-09 7.300000000000e+01
    3.816060000000e+05 4.000000000000e+00
 9 18  9  6 12  0  0.0 5.078739486635e-04-1.818989403546e-12 0.000000000000e+00
    9.200000000000e+01 2.618750000000e+01 4.935562728856e-09 2.719236196474e+00
    1.445412635803e-06 9.807012975216e-04 6.476417183876e-06 5.153541612625e+03
    3.888000000000e+05-5.401670932770e-08-2.427530654773e+00 4.284083843231e-08
    9.527130550200e-01 2.502187500000e+02 1.758046887309e+00-8.166054434659e-09
    3.528718413857e-10 1.000000000000e+00 2.017000000000e+03 0.000000000000e+00
    2.400000000000e+00 0.000000000000e+00 9.313225746155e-10 9.200000000000e+01
    3.816060000000e+05 4.000000000000e+00
27 18  9  6 12  0  0.0 3.475402481854e-04-3.524291969370e-12 0.000000000000e+00
    7.800000000000e+01 5.650000000000e+01 4.544832167645e-09 2.337039077435e+00
    2.933666110039e-06 6.016654544510e-03 2.104789018631e-06 5.153691812515e+03
    3.888000000000e+05-2.123415470123e-07 7.234642874201e-01-7.450580596924e-08
    9.778821992330e-01 3.481250000000e+02 4.544905440640e-01-8.324632468642e-09
    2.571535686212e-10 1.000000000000e+00 2.017000000000e+03 0.000000000000e+00
    2.400000000000e+00 0.000000000000e+00 1.862645149231e-09 7.800000000000e+01
    3.816060000000e+05 4.000000000000e+00
20 18  9  6 12  0  0.0 5.153692327440e-04 5.684341886081e-13 0.000000000000e+00
    5.600000000000e+01-4.675000000000e+01 4.926276627767e-09 2.879576494491e-02
   -2.482905983925e-06 4.224038100801e-03 1.212023198605e-05 5.153676103592e+03
    3.888000000000e+05-6.146728992462e-08 2.709912451942e+00-2.067536115646e-07
    9.293188795530e-01 1.349687500000e+02 2.090077376729e+00-8.152482440760e-09
    1.057186893220e-10 1.000000000000e+00 2.017000000000e+03 0.000000000000e+00
    2.400000000000e+00 0.000000000000e+00-8.381903171539e-09 5.600000000000e+01
    3.816060000000e+05 4.000000000000e+00
28 18  9  6 12  0  0.0 7.428177632391e-04 2.273736754432e-12 0.000000000000e+00
    1.820000000000e+02 1.143125000000e+02 3.651580674421e-09-3.038148238658e+00
    5.768612027168e-06 1.951713289600e-02 1.139380037785e-05 5.153697902679e+03
    3.888000000000e+05 3.501772880554e-07-2.321198028472e-01 8.568167686462e-08
    9.852285525067e-01 1.651562500000e+02-1.515031083354e+00-7.380664577162e-09
    1.442917246152e-10 1.000000000000e+00 2.017000000000e+03 0.000000000000e+00
    3.400000000000e+00 0.000000000000e+00-1.117587089539e-08 1.820000000000e+02
    3.816060000000e+05 4.000000000000e+00
 8 18  9  6 11 59 44.0-1.141903921962e-04-1.250555214938e-12 0.000000000000e+00
    1.900000000000e+01 6.012500000000e+01 4.773770275265e-09 2.700404319753e+00
    3.218650817871e-06 3.511022194289e-03 1.942738890648e-06 5.153620183945e+03
    3.887840000000e+05-8.940696716309e-08 7.141961484049e-01 9.313225746155e-08
    9.696694692998e-01 3.466562500000e+02-4.071274711333e-01-8.471781455131e-09
    2.542963067476e-10 1.000000000000e+00 2.017000000000e+03 0.000000000000e+00
    2.400000000000e+00 0.000000000000e+00 5.122274160385e-09 1.900000000000e+01
    3.818760000000e+05 4.000000000000e+00
11 18  9  6 11 59 44.0-7.199267856777e-04 2.614797267597e-12 0.000000000000e+00
    5.200000000000e+01-7.375000000000e+01 6.328835049955e-09-5.058896148702e-01
   -3.729015588760e-06 1.703727093991e-02 1.573935151100e-06 5.153651947021e+03
    3.887840000000e+05-2.086162567139e-07 1.346022394458e+00 1.862645149231e-08
    9.062412795583e-01 3.196875000000e+02 1.809844224396e+00-9.574327380594e-09
   -1.142904749427e-10 1.000000000000e+00 2.017000000000e+03 0.000000000000e+00
    2.400000000000e+00 0.000000000000e+00-1.210719347000e-08 5.200000000000e+01
    3.831360000000e+05 4.000000000000e+00
13 18  9  6 11 59 44.0-8.968729525805e-05 6.821210263297e-13 0.000000000000e+00
    1.000000000000e+00 2.718750000000e+01 4.695909889210e-09 1.111828697499e+00
    1.363456249237e-06 3.351833089255e-03 5.755573511124e-06 5.153658817291e+03
    3.887840000000e+05-5.774199962616e-08-2.294273868253e+00-2.421438694000e-08
    9.682558369307e-01 2.716875000000e+02 1.475923937402e+00-8.203555996750e-09
    2.771544017362e-10 1.000000000000e+00 2.017000000000e+03 0.000000000000e+00
    2.400000000000e+00 0.000000000000e+00-1.117587089539e-08 1.000000000000e+00
    3.854460000000e+05 4.000000000000e+00
